<?xml version="1.0" encoding="UTF-8"?>
<kml xmlns="http://www.opengis.net/kml/2.2">
  <Document>
    <name>GMH Workshop - Brazil 2026</name>
    <description/>
    <Style id="icon-1504-424242-nodesc-normal">
      <IconStyle>
        <color>ff424242</color>
        <scale>1</scale>
        <Icon>
          <href>https://www.gstatic.com/mapspro/images/stock/503-wht-blank_maps.png</href>
        </Icon>
      </IconStyle>
      <LabelStyle>
        <scale>0</scale>
      </LabelStyle>
      <BalloonStyle>
        <text><![CDATA[<h3>$[name]</h3>]]></text>
      </BalloonStyle>
    </Style>
    <Style id="icon-1504-424242-nodesc-highlight">
      <IconStyle>
        <color>ff424242</color>
        <scale>1</scale>
        <Icon>
          <href>https://www.gstatic.com/mapspro/images/stock/503-wht-blank_maps.png</href>
        </Icon>
      </IconStyle>
      <LabelStyle>
        <scale>1</scale>
      </LabelStyle>
      <BalloonStyle>
        <text><![CDATA[<h3>$[name]</h3>]]></text>
      </BalloonStyle>
    </Style>
    <StyleMap id="icon-1504-424242-nodesc">
      <Pair>
        <key>normal</key>
        <styleUrl>#icon-1504-424242-nodesc-normal</styleUrl>
      </Pair>
      <Pair>
        <key>highlight</key>
        <styleUrl>#icon-1504-424242-nodesc-highlight</styleUrl>
      </Pair>
    </StyleMap>
    <Style id="icon-1517-F57C00-nodesc-normal">
      <IconStyle>
        <color>ff007cf5</color>
        <scale>1</scale>
        <Icon>
          <href>https://www.gstatic.com/mapspro/images/stock/503-wht-blank_maps.png</href>
        </Icon>
      </IconStyle>
      <LabelStyle>
        <scale>0</scale>
      </LabelStyle>
      <BalloonStyle>
        <text><![CDATA[<h3>$[name]</h3>]]></text>
      </BalloonStyle>
    </Style>
    <Style id="icon-1517-F57C00-nodesc-highlight">
      <IconStyle>
        <color>ff007cf5</color>
        <scale>1</scale>
        <Icon>
          <href>https://www.gstatic.com/mapspro/images/stock/503-wht-blank_maps.png</href>
        </Icon>
      </IconStyle>
      <LabelStyle>
        <scale>1</scale>
      </LabelStyle>
      <BalloonStyle>
        <text><![CDATA[<h3>$[name]</h3>]]></text>
      </BalloonStyle>
    </Style>
    <StyleMap id="icon-1517-F57C00-nodesc">
      <Pair>
        <key>normal</key>
        <styleUrl>#icon-1517-F57C00-nodesc-normal</styleUrl>
      </Pair>
      <Pair>
        <key>highlight</key>
        <styleUrl>#icon-1517-F57C00-nodesc-highlight</styleUrl>
      </Pair>
    </StyleMap>
    <Style id="icon-1530-E65100-nodesc-normal">
      <IconStyle>
        <color>ff0051e6</color>
        <scale>1</scale>
        <Icon>
          <href>https://www.gstatic.com/mapspro/images/stock/503-wht-blank_maps.png</href>
        </Icon>
      </IconStyle>
      <LabelStyle>
        <scale>0</scale>
      </LabelStyle>
      <BalloonStyle>
        <text><![CDATA[<h3>$[name]</h3>]]></text>
      </BalloonStyle>
    </Style>
    <Style id="icon-1530-E65100-nodesc-highlight">
      <IconStyle>
        <color>ff0051e6</color>
        <scale>1</scale>
        <Icon>
          <href>https://www.gstatic.com/mapspro/images/stock/503-wht-blank_maps.png</href>
        </Icon>
      </IconStyle>
      <LabelStyle>
        <scale>1</scale>
      </LabelStyle>
      <BalloonStyle>
        <text><![CDATA[<h3>$[name]</h3>]]></text>
      </BalloonStyle>
    </Style>
    <StyleMap id="icon-1530-E65100-nodesc">
      <Pair>
        <key>normal</key>
        <styleUrl>#icon-1530-E65100-nodesc-normal</styleUrl>
      </Pair>
      <Pair>
        <key>highlight</key>
        <styleUrl>#icon-1530-E65100-nodesc-highlight</styleUrl>
      </Pair>
    </StyleMap>
    <Style id="icon-1534-000000-nodesc-normal">
      <IconStyle>
        <color>ff000000</color>
        <scale>1</scale>
        <Icon>
          <href>https://www.gstatic.com/mapspro/images/stock/503-wht-blank_maps.png</href>
        </Icon>
      </IconStyle>
      <LabelStyle>
        <scale>0</scale>
      </LabelStyle>
      <BalloonStyle>
        <text><![CDATA[<h3>$[name]</h3>]]></text>
      </BalloonStyle>
    </Style>
    <Style id="icon-1534-000000-nodesc-highlight">
      <IconStyle>
        <color>ff000000</color>
        <scale>1</scale>
        <Icon>
          <href>https://www.gstatic.com/mapspro/images/stock/503-wht-blank_maps.png</href>
        </Icon>
      </IconStyle>
      <LabelStyle>
        <scale>1</scale>
      </LabelStyle>
      <BalloonStyle>
        <text><![CDATA[<h3>$[name]</h3>]]></text>
      </BalloonStyle>
    </Style>
    <StyleMap id="icon-1534-000000-nodesc">
      <Pair>
        <key>normal</key>
        <styleUrl>#icon-1534-000000-nodesc-normal</styleUrl>
      </Pair>
      <Pair>
        <key>highlight</key>
        <styleUrl>#icon-1534-000000-nodesc-highlight</styleUrl>
      </Pair>
    </StyleMap>
    <Style id="icon-1534-006064-nodesc-normal">
      <IconStyle>
        <color>ff646000</color>
        <scale>1</scale>
        <Icon>
          <href>https://www.gstatic.com/mapspro/images/stock/503-wht-blank_maps.png</href>
        </Icon>
      </IconStyle>
      <LabelStyle>
        <scale>0</scale>
      </LabelStyle>
      <BalloonStyle>
        <text><![CDATA[<h3>$[name]</h3>]]></text>
      </BalloonStyle>
    </Style>
    <Style id="icon-1534-006064-nodesc-highlight">
      <IconStyle>
        <color>ff646000</color>
        <scale>1</scale>
        <Icon>
          <href>https://www.gstatic.com/mapspro/images/stock/503-wht-blank_maps.png</href>
        </Icon>
      </IconStyle>
      <LabelStyle>
        <scale>1</scale>
      </LabelStyle>
      <BalloonStyle>
        <text><![CDATA[<h3>$[name]</h3>]]></text>
      </BalloonStyle>
    </Style>
    <StyleMap id="icon-1534-006064-nodesc">
      <Pair>
        <key>normal</key>
        <styleUrl>#icon-1534-006064-nodesc-normal</styleUrl>
      </Pair>
      <Pair>
        <key>highlight</key>
        <styleUrl>#icon-1534-006064-nodesc-highlight</styleUrl>
      </Pair>
    </StyleMap>
    <Style id="icon-1535-1A237E-nodesc-normal">
      <IconStyle>
        <color>ff7e231a</color>
        <scale>1</scale>
        <Icon>
          <href>https://www.gstatic.com/mapspro/images/stock/503-wht-blank_maps.png</href>
        </Icon>
      </IconStyle>
      <LabelStyle>
        <scale>0</scale>
      </LabelStyle>
      <BalloonStyle>
        <text><![CDATA[<h3>$[name]</h3>]]></text>
      </BalloonStyle>
    </Style>
    <Style id="icon-1535-1A237E-nodesc-highlight">
      <IconStyle>
        <color>ff7e231a</color>
        <scale>1</scale>
        <Icon>
          <href>https://www.gstatic.com/mapspro/images/stock/503-wht-blank_maps.png</href>
        </Icon>
      </IconStyle>
      <LabelStyle>
        <scale>1</scale>
      </LabelStyle>
      <BalloonStyle>
        <text><![CDATA[<h3>$[name]</h3>]]></text>
      </BalloonStyle>
    </Style>
    <StyleMap id="icon-1535-1A237E-nodesc">
      <Pair>
        <key>normal</key>
        <styleUrl>#icon-1535-1A237E-nodesc-normal</styleUrl>
      </Pair>
      <Pair>
        <key>highlight</key>
        <styleUrl>#icon-1535-1A237E-nodesc-highlight</styleUrl>
      </Pair>
    </StyleMap>
    <Style id="icon-1548-880E4F-nodesc-normal">
      <IconStyle>
        <color>ff4f0e88</color>
        <scale>1</scale>
        <Icon>
          <href>https://www.gstatic.com/mapspro/images/stock/503-wht-blank_maps.png</href>
        </Icon>
      </IconStyle>
      <LabelStyle>
        <scale>0</scale>
      </LabelStyle>
      <BalloonStyle>
        <text><![CDATA[<h3>$[name]</h3>]]></text>
      </BalloonStyle>
    </Style>
    <Style id="icon-1548-880E4F-nodesc-highlight">
      <IconStyle>
        <color>ff4f0e88</color>
        <scale>1</scale>
        <Icon>
          <href>https://www.gstatic.com/mapspro/images/stock/503-wht-blank_maps.png</href>
        </Icon>
      </IconStyle>
      <LabelStyle>
        <scale>1</scale>
      </LabelStyle>
      <BalloonStyle>
        <text><![CDATA[<h3>$[name]</h3>]]></text>
      </BalloonStyle>
    </Style>
    <StyleMap id="icon-1548-880E4F-nodesc">
      <Pair>
        <key>normal</key>
        <styleUrl>#icon-1548-880E4F-nodesc-normal</styleUrl>
      </Pair>
      <Pair>
        <key>highlight</key>
        <styleUrl>#icon-1548-880E4F-nodesc-highlight</styleUrl>
      </Pair>
    </StyleMap>
    <Style id="icon-1577-E65100-nodesc-normal">
      <IconStyle>
        <color>ff0051e6</color>
        <scale>1</scale>
        <Icon>
          <href>https://www.gstatic.com/mapspro/images/stock/503-wht-blank_maps.png</href>
        </Icon>
      </IconStyle>
      <LabelStyle>
        <scale>0</scale>
      </LabelStyle>
      <BalloonStyle>
        <text><![CDATA[<h3>$[name]</h3>]]></text>
      </BalloonStyle>
    </Style>
    <Style id="icon-1577-E65100-nodesc-highlight">
      <IconStyle>
        <color>ff0051e6</color>
        <scale>1</scale>
        <Icon>
          <href>https://www.gstatic.com/mapspro/images/stock/503-wht-blank_maps.png</href>
        </Icon>
      </IconStyle>
      <LabelStyle>
        <scale>1</scale>
      </LabelStyle>
      <BalloonStyle>
        <text><![CDATA[<h3>$[name]</h3>]]></text>
      </BalloonStyle>
    </Style>
    <StyleMap id="icon-1577-E65100-nodesc">
      <Pair>
        <key>normal</key>
        <styleUrl>#icon-1577-E65100-nodesc-normal</styleUrl>
      </Pair>
      <Pair>
        <key>highlight</key>
        <styleUrl>#icon-1577-E65100-nodesc-highlight</styleUrl>
      </Pair>
    </StyleMap>
    <Style id="icon-1577-F57C00-nodesc-normal">
      <IconStyle>
        <color>ff007cf5</color>
        <scale>1</scale>
        <Icon>
          <href>https://www.gstatic.com/mapspro/images/stock/503-wht-blank_maps.png</href>
        </Icon>
      </IconStyle>
      <LabelStyle>
        <scale>0</scale>
      </LabelStyle>
      <BalloonStyle>
        <text><![CDATA[<h3>$[name]</h3>]]></text>
      </BalloonStyle>
    </Style>
    <Style id="icon-1577-F57C00-nodesc-highlight">
      <IconStyle>
        <color>ff007cf5</color>
        <scale>1</scale>
        <Icon>
          <href>https://www.gstatic.com/mapspro/images/stock/503-wht-blank_maps.png</href>
        </Icon>
      </IconStyle>
      <LabelStyle>
        <scale>1</scale>
      </LabelStyle>
      <BalloonStyle>
        <text><![CDATA[<h3>$[name]</h3>]]></text>
      </BalloonStyle>
    </Style>
    <StyleMap id="icon-1577-F57C00-nodesc">
      <Pair>
        <key>normal</key>
        <styleUrl>#icon-1577-F57C00-nodesc-normal</styleUrl>
      </Pair>
      <Pair>
        <key>highlight</key>
        <styleUrl>#icon-1577-F57C00-nodesc-highlight</styleUrl>
      </Pair>
    </StyleMap>
    <Style id="icon-1599-880E4F-nodesc-normal">
      <IconStyle>
        <color>ff4f0e88</color>
        <scale>1</scale>
        <Icon>
          <href>https://www.gstatic.com/mapspro/images/stock/503-wht-blank_maps.png</href>
        </Icon>
      </IconStyle>
      <LabelStyle>
        <scale>0</scale>
      </LabelStyle>
      <BalloonStyle>
        <text><![CDATA[<h3>$[name]</h3>]]></text>
      </BalloonStyle>
    </Style>
    <Style id="icon-1599-880E4F-nodesc-highlight">
      <IconStyle>
        <color>ff4f0e88</color>
        <scale>1</scale>
        <Icon>
          <href>https://www.gstatic.com/mapspro/images/stock/503-wht-blank_maps.png</href>
        </Icon>
      </IconStyle>
      <LabelStyle>
        <scale>1</scale>
      </LabelStyle>
      <BalloonStyle>
        <text><![CDATA[<h3>$[name]</h3>]]></text>
      </BalloonStyle>
    </Style>
    <StyleMap id="icon-1599-880E4F-nodesc">
      <Pair>
        <key>normal</key>
        <styleUrl>#icon-1599-880E4F-nodesc-normal</styleUrl>
      </Pair>
      <Pair>
        <key>highlight</key>
        <styleUrl>#icon-1599-880E4F-nodesc-highlight</styleUrl>
      </Pair>
    </StyleMap>
    <Style id="icon-1602-C2185B-nodesc-normal">
      <IconStyle>
        <color>ff5b18c2</color>
        <scale>1</scale>
        <Icon>
          <href>https://www.gstatic.com/mapspro/images/stock/503-wht-blank_maps.png</href>
        </Icon>
      </IconStyle>
      <LabelStyle>
        <scale>0</scale>
      </LabelStyle>
      <BalloonStyle>
        <text><![CDATA[<h3>$[name]</h3>]]></text>
      </BalloonStyle>
    </Style>
    <Style id="icon-1602-C2185B-nodesc-highlight">
      <IconStyle>
        <color>ff5b18c2</color>
        <scale>1</scale>
        <Icon>
          <href>https://www.gstatic.com/mapspro/images/stock/503-wht-blank_maps.png</href>
        </Icon>
      </IconStyle>
      <LabelStyle>
        <scale>1</scale>
      </LabelStyle>
      <BalloonStyle>
        <text><![CDATA[<h3>$[name]</h3>]]></text>
      </BalloonStyle>
    </Style>
    <StyleMap id="icon-1602-C2185B-nodesc">
      <Pair>
        <key>normal</key>
        <styleUrl>#icon-1602-C2185B-nodesc-normal</styleUrl>
      </Pair>
      <Pair>
        <key>highlight</key>
        <styleUrl>#icon-1602-C2185B-nodesc-highlight</styleUrl>
      </Pair>
    </StyleMap>
    <Style id="icon-1624-A52714-nodesc-normal">
      <IconStyle>
        <color>ff1427a5</color>
        <scale>1</scale>
        <Icon>
          <href>https://www.gstatic.com/mapspro/images/stock/503-wht-blank_maps.png</href>
        </Icon>
      </IconStyle>
      <LabelStyle>
        <scale>0</scale>
      </LabelStyle>
      <BalloonStyle>
        <text><![CDATA[<h3>$[name]</h3>]]></text>
      </BalloonStyle>
    </Style>
    <Style id="icon-1624-A52714-nodesc-highlight">
      <IconStyle>
        <color>ff1427a5</color>
        <scale>1</scale>
        <Icon>
          <href>https://www.gstatic.com/mapspro/images/stock/503-wht-blank_maps.png</href>
        </Icon>
      </IconStyle>
      <LabelStyle>
        <scale>1</scale>
      </LabelStyle>
      <BalloonStyle>
        <text><![CDATA[<h3>$[name]</h3>]]></text>
      </BalloonStyle>
    </Style>
    <StyleMap id="icon-1624-A52714-nodesc">
      <Pair>
        <key>normal</key>
        <styleUrl>#icon-1624-A52714-nodesc-normal</styleUrl>
      </Pair>
      <Pair>
        <key>highlight</key>
        <styleUrl>#icon-1624-A52714-nodesc-highlight</styleUrl>
      </Pair>
    </StyleMap>
    <Style id="icon-1636-A52714-nodesc-normal">
      <IconStyle>
        <color>ff1427a5</color>
        <scale>1</scale>
        <Icon>
          <href>https://www.gstatic.com/mapspro/images/stock/503-wht-blank_maps.png</href>
        </Icon>
      </IconStyle>
      <LabelStyle>
        <scale>0</scale>
      </LabelStyle>
      <BalloonStyle>
        <text><![CDATA[<h3>$[name]</h3>]]></text>
      </BalloonStyle>
    </Style>
    <Style id="icon-1636-A52714-nodesc-highlight">
      <IconStyle>
        <color>ff1427a5</color>
        <scale>1</scale>
        <Icon>
          <href>https://www.gstatic.com/mapspro/images/stock/503-wht-blank_maps.png</href>
        </Icon>
      </IconStyle>
      <LabelStyle>
        <scale>1</scale>
      </LabelStyle>
      <BalloonStyle>
        <text><![CDATA[<h3>$[name]</h3>]]></text>
      </BalloonStyle>
    </Style>
    <StyleMap id="icon-1636-A52714-nodesc">
      <Pair>
        <key>normal</key>
        <styleUrl>#icon-1636-A52714-nodesc-normal</styleUrl>
      </Pair>
      <Pair>
        <key>highlight</key>
        <styleUrl>#icon-1636-A52714-nodesc-highlight</styleUrl>
      </Pair>
    </StyleMap>
    <Style id="icon-1684-FFD600-nodesc-normal">
      <IconStyle>
        <color>ff00d6ff</color>
        <scale>1</scale>
        <Icon>
          <href>https://www.gstatic.com/mapspro/images/stock/503-wht-blank_maps.png</href>
        </Icon>
      </IconStyle>
      <LabelStyle>
        <scale>0</scale>
      </LabelStyle>
      <BalloonStyle>
        <text><![CDATA[<h3>$[name]</h3>]]></text>
      </BalloonStyle>
    </Style>
    <Style id="icon-1684-FFD600-nodesc-highlight">
      <IconStyle>
        <color>ff00d6ff</color>
        <scale>1</scale>
        <Icon>
          <href>https://www.gstatic.com/mapspro/images/stock/503-wht-blank_maps.png</href>
        </Icon>
      </IconStyle>
      <LabelStyle>
        <scale>1</scale>
      </LabelStyle>
      <BalloonStyle>
        <text><![CDATA[<h3>$[name]</h3>]]></text>
      </BalloonStyle>
    </Style>
    <StyleMap id="icon-1684-FFD600-nodesc">
      <Pair>
        <key>normal</key>
        <styleUrl>#icon-1684-FFD600-nodesc-normal</styleUrl>
      </Pair>
      <Pair>
        <key>highlight</key>
        <styleUrl>#icon-1684-FFD600-nodesc-highlight</styleUrl>
      </Pair>
    </StyleMap>
    <Style id="icon-1720-558B2F-labelson-nodesc">
      <IconStyle>
        <color>ff2f8b55</color>
        <scale>1</scale>
        <Icon>
          <href>https://www.gstatic.com/mapspro/images/stock/503-wht-blank_maps.png</href>
        </Icon>
      </IconStyle>
      <BalloonStyle>
        <text><![CDATA[<h3>$[name]</h3>]]></text>
      </BalloonStyle>
    </Style>
    <Style id="icon-1726-1A237E-nodesc-normal">
      <IconStyle>
        <color>ff7e231a</color>
        <scale>1</scale>
        <Icon>
          <href>https://www.gstatic.com/mapspro/images/stock/503-wht-blank_maps.png</href>
        </Icon>
      </IconStyle>
      <LabelStyle>
        <scale>0</scale>
      </LabelStyle>
      <BalloonStyle>
        <text><![CDATA[<h3>$[name]</h3>]]></text>
      </BalloonStyle>
    </Style>
    <Style id="icon-1726-1A237E-nodesc-highlight">
      <IconStyle>
        <color>ff7e231a</color>
        <scale>1</scale>
        <Icon>
          <href>https://www.gstatic.com/mapspro/images/stock/503-wht-blank_maps.png</href>
        </Icon>
      </IconStyle>
      <LabelStyle>
        <scale>1</scale>
      </LabelStyle>
      <BalloonStyle>
        <text><![CDATA[<h3>$[name]</h3>]]></text>
      </BalloonStyle>
    </Style>
    <StyleMap id="icon-1726-1A237E-nodesc">
      <Pair>
        <key>normal</key>
        <styleUrl>#icon-1726-1A237E-nodesc-normal</styleUrl>
      </Pair>
      <Pair>
        <key>highlight</key>
        <styleUrl>#icon-1726-1A237E-nodesc-highlight</styleUrl>
      </Pair>
    </StyleMap>
    <Style id="icon-1879-F57C00-nodesc-normal">
      <IconStyle>
        <color>ff007cf5</color>
        <scale>1</scale>
        <Icon>
          <href>https://www.gstatic.com/mapspro/images/stock/503-wht-blank_maps.png</href>
        </Icon>
      </IconStyle>
      <LabelStyle>
        <scale>0</scale>
      </LabelStyle>
      <BalloonStyle>
        <text><![CDATA[<h3>$[name]</h3>]]></text>
      </BalloonStyle>
    </Style>
    <Style id="icon-1879-F57C00-nodesc-highlight">
      <IconStyle>
        <color>ff007cf5</color>
        <scale>1</scale>
        <Icon>
          <href>https://www.gstatic.com/mapspro/images/stock/503-wht-blank_maps.png</href>
        </Icon>
      </IconStyle>
      <LabelStyle>
        <scale>1</scale>
      </LabelStyle>
      <BalloonStyle>
        <text><![CDATA[<h3>$[name]</h3>]]></text>
      </BalloonStyle>
    </Style>
    <StyleMap id="icon-1879-F57C00-nodesc">
      <Pair>
        <key>normal</key>
        <styleUrl>#icon-1879-F57C00-nodesc-normal</styleUrl>
      </Pair>
      <Pair>
        <key>highlight</key>
        <styleUrl>#icon-1879-F57C00-nodesc-highlight</styleUrl>
      </Pair>
    </StyleMap>
    <Style id="poly-0288D1-1-76-nodesc-normal">
      <LineStyle>
        <color>ffd18802</color>
        <width>0.001</width>
      </LineStyle>
      <PolyStyle>
        <color>4cd18802</color>
        <fill>1</fill>
        <outline>1</outline>
      </PolyStyle>
      <BalloonStyle>
        <text><![CDATA[<h3>$[name]</h3>]]></text>
      </BalloonStyle>
    </Style>
    <Style id="poly-0288D1-1-76-nodesc-highlight">
      <LineStyle>
        <color>ffd18802</color>
        <width>0.0015</width>
      </LineStyle>
      <PolyStyle>
        <color>4cd18802</color>
        <fill>1</fill>
        <outline>1</outline>
      </PolyStyle>
      <BalloonStyle>
        <text><![CDATA[<h3>$[name]</h3>]]></text>
      </BalloonStyle>
    </Style>
    <StyleMap id="poly-0288D1-1-76-nodesc">
      <Pair>
        <key>normal</key>
        <styleUrl>#poly-0288D1-1-76-nodesc-normal</styleUrl>
      </Pair>
      <Pair>
        <key>highlight</key>
        <styleUrl>#poly-0288D1-1-76-nodesc-highlight</styleUrl>
      </Pair>
    </StyleMap>
    <Folder>
      <name>Useful places</name>
      <Placemark>
        <name>Goiânia International Airport</name>
        <styleUrl>#icon-1504-424242-nodesc</styleUrl>
        <Point>
          <coordinates>
            -49.214384,-16.6298415,0
          </coordinates>
        </Point>
      </Placemark>
      <Placemark>
        <name>UFG - Image Processing Laboratory and Geo - LAPIG</name>
        <styleUrl>#icon-1726-1A237E-nodesc</styleUrl>
        <Point>
          <coordinates>
            -49.2649118,-16.6022387,0
          </coordinates>
        </Point>
      </Placemark>
      <Placemark>
        <name>Ciams Pedro Ludovico</name>
        <styleUrl>#icon-1624-A52714-nodesc</styleUrl>
        <Point>
          <coordinates>
            -49.2618802,-16.7097675,0
          </coordinates>
        </Point>
      </Placemark>
      <Placemark>
        <name>Ciams Jardim America</name>
        <styleUrl>#icon-1624-A52714-nodesc</styleUrl>
        <Point>
          <coordinates>
            -49.2835284,-16.6999154,0
          </coordinates>
        </Point>
      </Placemark>
      <Placemark>
        <name>Flamboyant Shopping Center</name>
        <styleUrl>#icon-1684-FFD600-nodesc</styleUrl>
        <Point>
          <coordinates>
            -49.2370077,-16.7102509,0
          </coordinates>
        </Point>
      </Placemark>
      <Placemark>
        <name>Goiânia Shopping</name>
        <styleUrl>#icon-1684-FFD600-nodesc</styleUrl>
        <Point>
          <coordinates>
            -49.272809,-16.7083507,0
          </coordinates>
        </Point>
      </Placemark>
    </Folder>
    <Folder>
      <name>Hotels</name>
      <Placemark>
        <name>Quality Flamboyant Goiânia</name>
        <styleUrl>#icon-1602-C2185B-nodesc</styleUrl>
        <Point>
          <coordinates>
            -49.2332272,-16.7032584,0
          </coordinates>
        </Point>
      </Placemark>
      <Placemark>
        <name>Comfort Suites Flamboyant</name>
        <styleUrl>#icon-1602-C2185B-nodesc</styleUrl>
        <Point>
          <coordinates>
            -49.2354577,-16.7078575,0
          </coordinates>
        </Point>
      </Placemark>
      <Placemark>
        <name>Hotel Maione</name>
        <styleUrl>#icon-1602-C2185B-nodesc</styleUrl>
        <Point>
          <coordinates>
            -49.2542438,-16.7079497,0
          </coordinates>
        </Point>
      </Placemark>
      <Placemark>
        <name>ibis Styles Goiania Marista</name>
        <styleUrl>#icon-1602-C2185B-nodesc</styleUrl>
        <Point>
          <coordinates>
            -49.2648861,-16.7016898,0
          </coordinates>
        </Point>
      </Placemark>
      <Placemark>
        <name>Hotel Buena Vista</name>
        <styleUrl>#icon-1602-C2185B-nodesc</styleUrl>
        <Point>
          <coordinates>
            -49.2681894,-16.7088484,0
          </coordinates>
        </Point>
      </Placemark>
      <Placemark>
        <name>SJ Premium Hotels by Atlantica</name>
        <styleUrl>#icon-1602-C2185B-nodesc</styleUrl>
        <Point>
          <coordinates>
            -49.2655917,-16.6900606,0
          </coordinates>
        </Point>
      </Placemark>
      <Placemark>
        <name>Holiday Inn Goiania by IHG</name>
        <styleUrl>#icon-1602-C2185B-nodesc</styleUrl>
        <Point>
          <coordinates>
            -49.2644486,-16.6898756,0
          </coordinates>
        </Point>
      </Placemark>
      <Placemark>
        <name>Crystal Plaza Hotel</name>
        <styleUrl>#icon-1602-C2185B-nodesc</styleUrl>
        <Point>
          <coordinates>
            -49.2577287,-16.682609,0
          </coordinates>
        </Point>
      </Placemark>
      <Placemark>
        <name><![CDATA[Castro's Park Hotel]]></name>
        <styleUrl>#icon-1602-C2185B-nodesc</styleUrl>
        <Point>
          <coordinates>
            -49.2676625,-16.6794111,0
          </coordinates>
        </Point>
      </Placemark>
      <Placemark>
        <name>Plaza Inn Breeze Aeroporto</name>
        <styleUrl>#icon-1602-C2185B-nodesc</styleUrl>
        <Point>
          <coordinates>
            -49.2075586,-16.6184212,0
          </coordinates>
        </Point>
      </Placemark>
      <Placemark>
        <name>Hotel Santos Dumont Aeroporto</name>
        <styleUrl>#icon-1602-C2185B-nodesc</styleUrl>
        <Point>
          <coordinates>
            -49.2284845,-16.6331731,0
          </coordinates>
        </Point>
      </Placemark>
      <Placemark>
        <name>Golden Lis Hotel Boutique</name>
        <styleUrl>#icon-1602-C2185B-nodesc</styleUrl>
        <Point>
          <coordinates>
            -49.2401076,-16.6412156,0
          </coordinates>
        </Point>
      </Placemark>
    </Folder>
    <Folder>
      <name>City Center</name>
      <Placemark>
        <name>Square Pedro Ludovico</name>
        <styleUrl>#icon-1548-880E4F-nodesc</styleUrl>
        <Point>
          <coordinates>
            -49.2563189,-16.6808408,0
          </coordinates>
        </Point>
      </Placemark>
      <Placemark>
        <name>Monument to the Three Races</name>
        <styleUrl>#icon-1599-880E4F-nodesc</styleUrl>
        <Point>
          <coordinates>
            -49.2564783,-16.6802398,0
          </coordinates>
        </Point>
      </Placemark>
      <Placemark>
        <name>Museu da Imagem e do Som de Goiás</name>
        <styleUrl>#icon-1636-A52714-nodesc</styleUrl>
        <Point>
          <coordinates>
            -49.2557663,-16.6804683,0
          </coordinates>
        </Point>
      </Placemark>
      <Placemark>
        <name>Vila Cultural Cora Coralina</name>
        <styleUrl>#icon-1636-A52714-nodesc</styleUrl>
        <Point>
          <coordinates>
            -49.2612388,-16.6767514,0
          </coordinates>
        </Point>
      </Placemark>
      <Placemark>
        <name>Beco da Codorna</name>
        <styleUrl>#icon-1535-1A237E-nodesc</styleUrl>
        <Point>
          <coordinates>
            -49.2606243,-16.6757354,0
          </coordinates>
        </Point>
      </Placemark>
      <Placemark>
        <name>Praça do Avião</name>
        <styleUrl>#icon-1535-1A237E-nodesc</styleUrl>
        <Point>
          <coordinates>
            -49.269912,-16.6713717,0
          </coordinates>
        </Point>
      </Placemark>
    </Folder>
    <Folder>
      <name>Others</name>
      <Placemark>
        <name>Oscar Niemeyer Cultural Center</name>
        <styleUrl>#icon-1599-880E4F-nodesc</styleUrl>
        <Point>
          <coordinates>
            -49.227805,-16.7113351,0
          </coordinates>
        </Point>
      </Placemark>
      <Placemark>
        <name>Museum of Contemporary Art of Goiás</name>
        <styleUrl>#icon-1636-A52714-nodesc</styleUrl>
        <Point>
          <coordinates>
            -49.2285262,-16.7111712,0
          </coordinates>
        </Point>
      </Placemark>
    </Folder>
    <Folder>
      <name>Parks</name>
      <Placemark>
        <name>Parque Flamboyant</name>
        <styleUrl>#icon-1720-558B2F-labelson-nodesc</styleUrl>
        <Point>
          <coordinates>
            -49.2388233,-16.7032003,0
          </coordinates>
        </Point>
      </Placemark>
      <Placemark>
        <name>Parque Vaca Brava</name>
        <styleUrl>#icon-1720-558B2F-labelson-nodesc</styleUrl>
        <Point>
          <coordinates>
            -49.2705758,-16.7096318,0
          </coordinates>
        </Point>
      </Placemark>
      <Placemark>
        <name>Parque Areião Washington Novaes</name>
        <styleUrl>#icon-1720-558B2F-labelson-nodesc</styleUrl>
        <Point>
          <coordinates>
            -49.2566227,-16.7072291,0
          </coordinates>
        </Point>
      </Placemark>
      <Placemark>
        <name>Jardim Botânico de Goiânia</name>
        <styleUrl>#icon-1720-558B2F-labelson-nodesc</styleUrl>
        <Point>
          <coordinates>
            -49.2537648,-16.7253029,0
          </coordinates>
        </Point>
      </Placemark>
      <Placemark>
        <name>Bosque dos Buritis</name>
        <styleUrl>#icon-1720-558B2F-labelson-nodesc</styleUrl>
        <Point>
          <coordinates>
            -49.2615597,-16.6821019,0
          </coordinates>
        </Point>
      </Placemark>
      <Placemark>
        <name>Parque Lago das Rosas</name>
        <styleUrl>#icon-1720-558B2F-labelson-nodesc</styleUrl>
        <Point>
          <coordinates>
            -49.2739961,-16.6800351,0
          </coordinates>
        </Point>
      </Placemark>
    </Folder>
    <Folder>
      <name>Specialty coffees</name>
      <Placemark>
        <name>not black cafeteria</name>
        <styleUrl>#icon-1534-000000-nodesc</styleUrl>
        <Point>
          <coordinates>
            -49.3000493,-16.6898737,0
          </coordinates>
        </Point>
      </Placemark>
      <Placemark>
        <name>King Experience - Cafeteria e Escola de Café</name>
        <styleUrl>#icon-1534-006064-nodesc</styleUrl>
        <Point>
          <coordinates>
            -49.2512748,-16.6793517,0
          </coordinates>
        </Point>
      </Placemark>
      <Placemark>
        <name>Luiz Café Concept</name>
        <styleUrl>#icon-1534-006064-nodesc</styleUrl>
        <Point>
          <coordinates>
            -49.2634343,-16.6883494,0
          </coordinates>
        </Point>
      </Placemark>
      <Placemark>
        <name>Café Mor</name>
        <styleUrl>#icon-1534-006064-nodesc</styleUrl>
        <Point>
          <coordinates>
            -49.2736285,-16.6852063,0
          </coordinates>
        </Point>
      </Placemark>
      <Placemark>
        <name>Subverso Coffee Culture</name>
        <styleUrl>#icon-1534-006064-nodesc</styleUrl>
        <Point>
          <coordinates>
            -49.2732521,-16.6937051,0
          </coordinates>
        </Point>
      </Placemark>
      <Placemark>
        <name>Rensga Café</name>
        <styleUrl>#icon-1534-006064-nodesc</styleUrl>
        <Point>
          <coordinates>
            -49.271347,-16.7189588,0
          </coordinates>
        </Point>
      </Placemark>
      <Placemark>
        <name>Biomas - Cafés Especiais</name>
        <styleUrl>#icon-1534-006064-nodesc</styleUrl>
        <Point>
          <coordinates>
            -49.2538017,-16.672284,0
          </coordinates>
        </Point>
      </Placemark>
      <Placemark>
        <name>Zoi | Pães Artesanais</name>
        <styleUrl>#icon-1534-006064-nodesc</styleUrl>
        <Point>
          <coordinates>
            -49.2813065,-16.7033138,0
          </coordinates>
        </Point>
      </Placemark>
    </Folder>
    <Folder>
      <name>Restaurants</name>
      <Placemark>
        <name>Kasarão</name>
        <styleUrl>#icon-1577-E65100-nodesc</styleUrl>
        <Point>
          <coordinates>
            -49.2540472,-16.6717964,0
          </coordinates>
        </Point>
      </Placemark>
      <Placemark>
        <name>Boteco do Pedro</name>
        <styleUrl>#icon-1577-E65100-nodesc</styleUrl>
        <Point>
          <coordinates>
            -49.253861,-16.6723016,0
          </coordinates>
        </Point>
      </Placemark>
      <Placemark>
        <name>Glória Bar e Restaurante</name>
        <styleUrl>#icon-1577-E65100-nodesc</styleUrl>
        <Point>
          <coordinates>
            -49.2596,-16.6857345,0
          </coordinates>
        </Point>
      </Placemark>
      <Placemark>
        <name>MELT Cozinha de Fogo</name>
        <styleUrl>#icon-1577-E65100-nodesc</styleUrl>
        <Point>
          <coordinates>
            -49.2034344,-16.7180897,0
          </coordinates>
        </Point>
      </Placemark>
      <Placemark>
        <name>Casa 15 Armazém Cafeteria/ Congelados/ Carnes Nobres/ Empório</name>
        <styleUrl>#icon-1577-E65100-nodesc</styleUrl>
        <Point>
          <coordinates>
            -49.2684806,-16.69559,0
          </coordinates>
        </Point>
      </Placemark>
      <Placemark>
        <name>La Farine - Marista - Petit Comité</name>
        <styleUrl>#icon-1577-E65100-nodesc</styleUrl>
        <Point>
          <coordinates>
            -49.2627303,-16.7038444,0
          </coordinates>
        </Point>
      </Placemark>
      <Placemark>
        <name>Zimbro Bar</name>
        <styleUrl>#icon-1517-F57C00-nodesc</styleUrl>
        <Point>
          <coordinates>
            -49.2634185,-16.7043971,0
          </coordinates>
        </Point>
      </Placemark>
      <Placemark>
        <name>Cervejaria Dias | Brew Pub | Bar | Restaurante</name>
        <styleUrl>#icon-1879-F57C00-nodesc</styleUrl>
        <Point>
          <coordinates>
            -49.2383276,-16.6990658,0
          </coordinates>
        </Point>
      </Placemark>
      <Placemark>
        <name>Cervejaria Louvada Goiânia</name>
        <styleUrl>#icon-1879-F57C00-nodesc</styleUrl>
        <Point>
          <coordinates>
            -49.2619223,-16.7211022,0
          </coordinates>
        </Point>
      </Placemark>
      <Placemark>
        <name>Origini Pastificio</name>
        <styleUrl>#icon-1577-F57C00-nodesc</styleUrl>
        <Point>
          <coordinates>
            -49.2700178,-16.7170098,0
          </coordinates>
        </Point>
      </Placemark>
      <Placemark>
        <name>Bolshoi Pub</name>
        <styleUrl>#icon-1577-F57C00-nodesc</styleUrl>
        <Point>
          <coordinates>
            -49.2716782,-16.7034834,0
          </coordinates>
        </Point>
      </Placemark>
      <Placemark>
        <name>Vikings Pub</name>
        <styleUrl>#icon-1577-F57C00-nodesc</styleUrl>
        <Point>
          <coordinates>
            -49.2794564,-16.6931608,0
          </coordinates>
        </Point>
      </Placemark>
      <Placemark>
        <name>Fogueiro Steakhouse Jd presidente</name>
        <styleUrl>#icon-1530-E65100-nodesc</styleUrl>
        <Point>
          <coordinates>
            -49.33065,-16.7429792,0
          </coordinates>
        </Point>
      </Placemark>
      <Placemark>
        <name><![CDATA[La Bottega De'll Arte]]></name>
        <styleUrl>#icon-1530-E65100-nodesc</styleUrl>
        <Point>
          <coordinates>
            -49.2622839,-16.6925596,0
          </coordinates>
        </Point>
      </Placemark>
    </Folder>
    <Folder>
      <name>South Region - Goiânia</name>
      <Placemark>
        <name>Alto da Glória</name>
        <styleUrl>#poly-0288D1-1-76-nodesc</styleUrl>
        <Polygon>
          <outerBoundaryIs>
            <LinearRing>
              <tessellate>1</tessellate>
              <coordinates>
                -49.2404504,-16.7102892,0
                -49.2404055,-16.7159491,0
                -49.2306101,-16.7232856,0
                -49.2299878,-16.723265,0
                -49.2308032,-16.7226485,0
                -49.230299,-16.7218574,0
                -49.2308569,-16.7214052,0
                -49.2299664,-16.7200284,0
                -49.2292154,-16.7191447,0
                -49.2404504,-16.7102892,0
              </coordinates>
            </LinearRing>
          </outerBoundaryIs>
        </Polygon>
      </Placemark>
      <Placemark>
        <name>Areião</name>
        <styleUrl>#poly-0288D1-1-76-nodesc</styleUrl>
        <Polygon>
          <outerBoundaryIs>
            <LinearRing>
              <tessellate>1</tessellate>
              <coordinates>
                -49.2605149,-16.7099947,0
                -49.2576444,-16.7098681,0
                -49.257564,-16.7096883,0
                -49.2574781,-16.7096112,0
                -49.2566467,-16.7090923,0
                -49.2563033,-16.7087429,0
                -49.2556274,-16.7077873,0
                -49.2553592,-16.7074482,0
                -49.2547584,-16.7068419,0
                -49.2539215,-16.7062253,0
                -49.2531276,-16.7052388,0
                -49.2530418,-16.7047456,0
                -49.2528487,-16.7024848,0
                -49.2570758,-16.706287,0
                -49.2605981,-16.7081528,0
                -49.2605149,-16.7099947,0
              </coordinates>
            </LinearRing>
          </outerBoundaryIs>
        </Polygon>
      </Placemark>
      <Placemark>
        <name>Setor Bela Vista</name>
        <styleUrl>#poly-0288D1-1-76-nodesc</styleUrl>
        <Polygon>
          <outerBoundaryIs>
            <LinearRing>
              <tessellate>1</tessellate>
              <coordinates>
                -49.2634583,-16.7213556,0
                -49.2599191,-16.72124,0
                -49.2597354,-16.7213581,0
                -49.2584157,-16.7197115,0
                -49.2588707,-16.7099228,0
                -49.2605149,-16.7099947,0
                -49.2605981,-16.7081528,0
                -49.2639562,-16.7084148,0
                -49.2634583,-16.7213556,0
              </coordinates>
            </LinearRing>
          </outerBoundaryIs>
        </Polygon>
      </Placemark>
      <Placemark>
        <name>Setor Bueno</name>
        <styleUrl>#poly-0288D1-1-76-nodesc</styleUrl>
        <Polygon>
          <outerBoundaryIs>
            <LinearRing>
              <tessellate>1</tessellate>
              <coordinates>
                -49.2786077,-16.6865406,0
                -49.2890701,-16.6915297,0
                -49.2847401,-16.6941992,0
                -49.2849263,-16.6947895,0
                -49.2871759,-16.6944783,0
                -49.2874138,-16.695981,0
                -49.284369,-16.6964885,0
                -49.2847338,-16.6979991,0
                -49.2844334,-16.6980145,0
                -49.2841009,-16.6983074,0
                -49.2821374,-16.7009381,0
                -49.2797557,-16.7070318,0
                -49.2795625,-16.7072682,0
                -49.2755398,-16.7125649,0
                -49.2748746,-16.7127705,0
                -49.2725786,-16.7112908,0
                -49.2713555,-16.7130582,0
                -49.2711839,-16.7135309,0
                -49.2711733,-16.714217,0
                -49.2702561,-16.7141865,0
                -49.2637319,-16.7139845,0
                -49.2639562,-16.7084148,0
                -49.2641718,-16.7044999,0
                -49.2786077,-16.6865406,0
              </coordinates>
            </LinearRing>
          </outerBoundaryIs>
        </Polygon>
      </Placemark>
      <Placemark>
        <name>Jardim América</name>
        <styleUrl>#poly-0288D1-1-76-nodesc</styleUrl>
        <Polygon>
          <outerBoundaryIs>
            <LinearRing>
              <tessellate>1</tessellate>
              <coordinates>
                -49.2755398,-16.7125649,0
                -49.2797557,-16.7070318,0
                -49.2821374,-16.7009381,0
                -49.2841009,-16.6983074,0
                -49.2844334,-16.6980145,0
                -49.2847338,-16.6979991,0
                -49.284369,-16.6964885,0
                -49.2874138,-16.695981,0
                -49.2871759,-16.6944783,0
                -49.2849263,-16.6947895,0
                -49.2847401,-16.6941992,0
                -49.2890701,-16.6915297,0
                -49.2893115,-16.6933847,0
                -49.2896924,-16.6956404,0
                -49.2925797,-16.6951565,0
                -49.2930095,-16.6965435,0
                -49.2930527,-16.6969698,0
                -49.2932138,-16.6973166,0
                -49.2932193,-16.6975722,0
                -49.2933642,-16.6980744,0
                -49.2935533,-16.6993069,0
                -49.2938071,-16.7006093,0
                -49.29449,-16.7013773,0
                -49.2950405,-16.7029544,0
                -49.2952284,-16.7043802,0
                -49.2950783,-16.7051768,0
                -49.2951238,-16.7055613,0
                -49.2959097,-16.7070557,0
                -49.2959042,-16.7074035,0
                -49.2958076,-16.7093219,0
                -49.2952173,-16.7121619,0
                -49.2952061,-16.713444,0
                -49.2950979,-16.7148059,0
                -49.294856,-16.715763,0
                -49.2946463,-16.7168639,0
                -49.294412,-16.7178302,0
                -49.294089,-16.718641,0
                -49.2939765,-16.7191448,0
                -49.2939552,-16.7198747,0
                -49.293808,-16.7200012,0
                -49.2935938,-16.7200481,0
                -49.2933644,-16.7199993,0
                -49.2935066,-16.7214739,0
                -49.293453,-16.7215536,0
                -49.2931635,-16.7227276,0
                -49.2931209,-16.7228151,0
                -49.2929982,-16.722877,0
                -49.2917175,-16.7226411,0
                -49.2915378,-16.7231096,0
                -49.2925409,-16.7235739,0
                -49.2923907,-16.7240247,0
                -49.2898158,-16.7254401,0
                -49.2896791,-16.7254541,0
                -49.2895586,-16.7254013,0
                -49.2824293,-16.7219541,0
                -49.2758683,-16.7221618,0
                -49.2739479,-16.7218115,0
                -49.2768058,-16.7158737,0
                -49.2775997,-16.7161203,0
                -49.2781791,-16.7134075,0
                -49.2758187,-16.7129965,0
                -49.2758187,-16.7126472,0
                -49.2755398,-16.7125649,0
              </coordinates>
            </LinearRing>
          </outerBoundaryIs>
        </Polygon>
      </Placemark>
      <Placemark>
        <name>Jardim das Esmeraldas</name>
        <styleUrl>#poly-0288D1-1-76-nodesc</styleUrl>
        <Polygon>
          <outerBoundaryIs>
            <LinearRing>
              <tessellate>1</tessellate>
              <coordinates>
                -49.2597354,-16.7213581,0
                -49.2597538,-16.7216382,0
                -49.2600834,-16.7221778,0
                -49.262502,-16.7275621,0
                -49.2629191,-16.7290011,0
                -49.2596629,-16.7351402,0
                -49.2546445,-16.7332908,0
                -49.2512676,-16.7322069,0
                -49.2554905,-16.7312791,0
                -49.2594551,-16.7292107,0
                -49.2600499,-16.7283583,0
                -49.2592346,-16.7267143,0
                -49.25776,-16.7259638,0
                -49.2567944,-16.7232923,0
                -49.255748,-16.7220317,0
                -49.2567206,-16.7179339,0
                -49.2584157,-16.7197115,0
                -49.2597354,-16.7213581,0
              </coordinates>
            </LinearRing>
          </outerBoundaryIs>
        </Polygon>
      </Placemark>
      <Placemark>
        <name>Jardim Goiás</name>
        <styleUrl>#poly-0288D1-1-76-nodesc</styleUrl>
        <Polygon>
          <outerBoundaryIs>
            <LinearRing>
              <tessellate>1</tessellate>
              <coordinates>
                -49.23107,-16.7097653,0
                -49.23095,-16.7094313,0
                -49.2307977,-16.7086144,0
                -49.2307723,-16.7076176,0
                -49.231357,-16.6973825,0
                -49.231416,-16.6967814,0
                -49.2334061,-16.6868386,0
                -49.2344066,-16.686854,0
                -49.2360884,-16.6873679,0
                -49.2374563,-16.6875939,0
                -49.2368555,-16.6883545,0
                -49.2433679,-16.6894207,0
                -49.2440118,-16.6893144,0
                -49.2436686,-16.6900919,0
                -49.2436046,-16.6904445,0
                -49.2436267,-16.6913835,0
                -49.2437783,-16.6927272,0
                -49.2440733,-16.6933978,0
                -49.2445856,-16.6942945,0
                -49.2446875,-16.6946798,0
                -49.2447036,-16.6957897,0
                -49.2448968,-16.6995458,0
                -49.2448304,-16.7000024,0
                -49.2446459,-16.7006337,0
                -49.2441376,-16.7021842,0
                -49.2361957,-16.7080441,0
                -49.2357746,-16.7082907,0
                -49.235434,-16.7084295,0
                -49.23107,-16.7097653,0
              </coordinates>
            </LinearRing>
          </outerBoundaryIs>
        </Polygon>
      </Placemark>
      <Placemark>
        <name>Jardim Santo Antônio</name>
        <styleUrl>#poly-0288D1-1-76-nodesc</styleUrl>
        <Polygon>
          <outerBoundaryIs>
            <LinearRing>
              <tessellate>1</tessellate>
              <coordinates>
                -49.2490911,-16.7244226,0
                -49.2516875,-16.7273201,0
                -49.253683,-16.7281421,0
                -49.2594551,-16.7292107,0
                -49.2581513,-16.7301078,0
                -49.2554905,-16.7312791,0
                -49.2510273,-16.7322655,0
                -49.2436029,-16.7336628,0
                -49.2434742,-16.7309914,0
                -49.2376377,-16.7295119,0
                -49.2421867,-16.7284433,0
                -49.2430879,-16.7285255,0
                -49.2465211,-16.7273336,0
                -49.2490911,-16.7244226,0
              </coordinates>
            </LinearRing>
          </outerBoundaryIs>
        </Polygon>
      </Placemark>
      <Placemark>
        <name>Jardim Vitoria</name>
        <styleUrl>#poly-0288D1-1-76-nodesc</styleUrl>
        <Polygon>
          <outerBoundaryIs>
            <LinearRing>
              <tessellate>1</tessellate>
              <coordinates>
                -49.2022545,-16.7151739,0
                -49.2218025,-16.7102827,0
                -49.2220601,-16.711742,0
                -49.2238624,-16.7116186,0
                -49.2238839,-16.7139409,0
                -49.2234548,-16.7165098,0
                -49.2234977,-16.7183183,0
                -49.2239483,-16.7199623,0
                -49.2236479,-16.7200137,0
                -49.223841,-16.7213598,0
                -49.2238786,-16.7216064,0
                -49.2237551,-16.7223667,0
                -49.2230256,-16.7228188,0
                -49.2242916,-16.7246786,0
                -49.2238625,-16.7249201,0
                -49.2230176,-16.7247865,0
                -49.2228862,-16.7245345,0
                -49.2225618,-16.7240539,0
                -49.2221823,-16.724367,0
                -49.2223152,-16.7245672,0
                -49.2217375,-16.7249451,0
                -49.2215571,-16.7246748,0
                -49.2215739,-16.7245842,0
                -49.2215705,-16.7240376,0
                -49.2213318,-16.7233403,0
                -49.2204936,-16.721298,0
                -49.2192919,-16.7234764,0
                -49.208091,-16.7296413,0
                -49.2022545,-16.7151739,0
              </coordinates>
            </LinearRing>
          </outerBoundaryIs>
        </Polygon>
      </Placemark>
      <Placemark>
        <name>Setor Marista</name>
        <styleUrl>#poly-0288D1-1-76-nodesc</styleUrl>
        <Polygon>
          <outerBoundaryIs>
            <LinearRing>
              <tessellate>1</tessellate>
              <coordinates>
                -49.2638918,-16.7100898,0
                -49.2605149,-16.7099947,0
                -49.2605981,-16.7081528,0
                -49.2570758,-16.706287,0
                -49.2528487,-16.7024848,0
                -49.2524747,-16.6974439,0
                -49.2533651,-16.6972949,0
                -49.2541537,-16.6972333,0
                -49.2559615,-16.6975981,0
                -49.2578605,-16.6980811,0
                -49.2584077,-16.6955274,0
                -49.2587564,-16.6942839,0
                -49.2589548,-16.6934721,0
                -49.2590836,-16.6924546,0
                -49.2595825,-16.6908618,0
                -49.2704132,-16.6918946,0
                -49.2718938,-16.6920179,0
                -49.2737003,-16.6926447,0
                -49.2641718,-16.7044999,0
                -49.2638918,-16.7100898,0
              </coordinates>
            </LinearRing>
          </outerBoundaryIs>
        </Polygon>
      </Placemark>
      <Placemark>
        <name>Nova Suiça</name>
        <styleUrl>#poly-0288D1-1-76-nodesc</styleUrl>
        <Polygon>
          <outerBoundaryIs>
            <LinearRing>
              <tessellate>1</tessellate>
              <coordinates>
                -49.2725786,-16.7112908,0
                -49.2748746,-16.7127705,0
                -49.2755398,-16.7125649,0
                -49.2758187,-16.7126472,0
                -49.2758187,-16.7129965,0
                -49.2781791,-16.7134075,0
                -49.2775997,-16.7161203,0
                -49.2768058,-16.7158737,0
                -49.2739479,-16.7218115,0
                -49.2737588,-16.7222032,0
                -49.2737803,-16.7222854,0
                -49.2731794,-16.7226759,0
                -49.2730828,-16.722676,0
                -49.2731807,-16.7216532,0
                -49.269779,-16.7209623,0
                -49.2688721,-16.7204525,0
                -49.2689122,-16.7193345,0
                -49.2698121,-16.7192481,0
                -49.2698328,-16.7176431,0
                -49.2701972,-16.7159158,0
                -49.2702561,-16.7141865,0
                -49.2711733,-16.714217,0
                -49.2711839,-16.7135309,0
                -49.2713555,-16.7130582,0
                -49.2725786,-16.7112908,0
              </coordinates>
            </LinearRing>
          </outerBoundaryIs>
        </Polygon>
      </Placemark>
      <Placemark>
        <name>Setor Oeste</name>
        <styleUrl>#poly-0288D1-1-76-nodesc</styleUrl>
        <Polygon>
          <outerBoundaryIs>
            <LinearRing>
              <tessellate>1</tessellate>
              <coordinates>
                -49.2800368,-16.6756061,0
                -49.2802567,-16.6758116,0
                -49.2802084,-16.6759709,0
                -49.2802165,-16.6761019,0
                -49.2798987,-16.6763678,0
                -49.2793931,-16.6770808,0
                -49.2782853,-16.6792674,0
                -49.2781337,-16.6792609,0
                -49.2779453,-16.6792526,0
                -49.2778618,-16.6793563,0
                -49.2778212,-16.6794961,0
                -49.2778615,-16.67964,0
                -49.2779849,-16.6798006,0
                -49.277371,-16.6829994,0
                -49.2772823,-16.683424,0
                -49.2773546,-16.683828,0
                -49.2775859,-16.6850407,0
                -49.277769,-16.6854826,0
                -49.2779098,-16.6857395,0
                -49.278052,-16.6859451,0
                -49.2786077,-16.6865406,0
                -49.2737003,-16.6926447,0
                -49.2719421,-16.6920128,0
                -49.2621464,-16.6910938,0
                -49.2608966,-16.6888406,0
                -49.2607088,-16.6886145,0
                -49.2601133,-16.6881546,0
                -49.2598022,-16.6877693,0
                -49.2596531,-16.6872821,0
                -49.2596893,-16.6867002,0
                -49.2596504,-16.6863649,0
                -49.259751,-16.6858138,0
                -49.2597872,-16.684939,0
                -49.2597363,-16.6846871,0
                -49.2595384,-16.684238,0
                -49.2593646,-16.6839456,0
                -49.2597332,-16.6838258,0
                -49.2601191,-16.6837456,0
                -49.2603256,-16.683648,0
                -49.2601379,-16.6833139,0
                -49.2600279,-16.6830313,0
                -49.2600064,-16.6828001,0
                -49.2600467,-16.6824082,0
                -49.2602023,-16.6819737,0
                -49.2602935,-16.6818783,0
                -49.2603471,-16.6815848,0
                -49.2603551,-16.6814127,0
                -49.2601084,-16.680611,0
                -49.2601298,-16.6801383,0
                -49.2604088,-16.6796861,0
                -49.2649578,-16.6776717,0
                -49.2652233,-16.6774456,0
                -49.2655318,-16.6770242,0
                -49.2706782,-16.6785179,0
                -49.2715768,-16.678672,0
                -49.2724485,-16.6786771,0
                -49.273972,-16.678374,0
                -49.2792587,-16.6754654,0
                -49.2797792,-16.6752839,0
                -49.2800368,-16.6756061,0
              </coordinates>
            </LinearRing>
          </outerBoundaryIs>
        </Polygon>
      </Placemark>
      <Placemark>
        <name>Parque Amazonia</name>
        <styleUrl>#poly-0288D1-1-76-nodesc</styleUrl>
        <Polygon>
          <outerBoundaryIs>
            <LinearRing>
              <tessellate>1</tessellate>
              <coordinates>
                -49.2739479,-16.7218115,0
                -49.2758683,-16.7221618,0
                -49.2824293,-16.7219541,0
                -49.2898158,-16.7254401,0
                -49.2923907,-16.7240247,0
                -49.2906826,-16.7279706,0
                -49.2821747,-16.7450516,0
                -49.275512,-16.741425,0
                -49.27239,-16.7397195,0
                -49.2693645,-16.7380756,0
                -49.2664462,-16.7363289,0
                -49.2630629,-16.7289249,0
                -49.2631987,-16.7288364,0
                -49.2730828,-16.722676,0
                -49.2731794,-16.7226759,0
                -49.2737803,-16.7222854,0
                -49.2737588,-16.7222032,0
                -49.2739479,-16.7218115,0
              </coordinates>
            </LinearRing>
          </outerBoundaryIs>
        </Polygon>
      </Placemark>
      <Placemark>
        <name>Setor Pedro Ludovico</name>
        <styleUrl>#poly-0288D1-1-76-nodesc</styleUrl>
        <Polygon>
          <outerBoundaryIs>
            <LinearRing>
              <tessellate>1</tessellate>
              <coordinates>
                -49.2588707,-16.7099228,0
                -49.2584157,-16.7197115,0
                -49.2567206,-16.7179339,0
                -49.255748,-16.7220317,0
                -49.2567944,-16.7232923,0
                -49.2573952,-16.7248542,0
                -49.25776,-16.7259638,0
                -49.2592346,-16.7267143,0
                -49.2600499,-16.7283583,0
                -49.2594551,-16.7292107,0
                -49.253683,-16.7281421,0
                -49.2516875,-16.7273201,0
                -49.2490911,-16.7244226,0
                -49.2503142,-16.7210934,0
                -49.2476452,-16.7188487,0
                -49.2467869,-16.7177595,0
                -49.2464007,-16.7167114,0
                -49.2457141,-16.713485,0
                -49.244359,-16.7129992,0
                -49.2436454,-16.709682,0
                -49.2434309,-16.7084694,0
                -49.2432807,-16.7055305,0
                -49.2441376,-16.7021842,0
                -49.2494344,-16.6983736,0
                -49.2502069,-16.6980962,0
                -49.2524747,-16.6974439,0
                -49.2531276,-16.7052388,0
                -49.2539215,-16.7062253,0
                -49.2547584,-16.7068419,0
                -49.2556274,-16.7077873,0
                -49.2563033,-16.7087429,0
                -49.2576444,-16.7098681,0
                -49.2588707,-16.7099228,0
              </coordinates>
            </LinearRing>
          </outerBoundaryIs>
        </Polygon>
      </Placemark>
      <Placemark>
        <name>Serrinha</name>
        <styleUrl>#poly-0288D1-1-76-nodesc</styleUrl>
        <Polygon>
          <outerBoundaryIs>
            <LinearRing>
              <tessellate>1</tessellate>
              <coordinates>
                -49.2637319,-16.7139845,0
                -49.2702561,-16.7141865,0
                -49.270249,-16.7157796,0
                -49.2698328,-16.7176431,0
                -49.2698121,-16.7192481,0
                -49.2689122,-16.7193345,0
                -49.2688721,-16.7204525,0
                -49.269779,-16.7209623,0
                -49.2731807,-16.7216532,0
                -49.2730828,-16.722676,0
                -49.2629191,-16.7290011,0
                -49.262502,-16.7275621,0
                -49.2600834,-16.7221778,0
                -49.2597538,-16.7216382,0
                -49.2597354,-16.7213581,0
                -49.2599191,-16.72124,0
                -49.2634583,-16.7213556,0
                -49.2637319,-16.7139845,0
              </coordinates>
            </LinearRing>
          </outerBoundaryIs>
        </Polygon>
      </Placemark>
      <Placemark>
        <name>Setor dos Afonsos</name>
        <styleUrl>#poly-0288D1-1-76-nodesc</styleUrl>
        <Polygon>
          <outerBoundaryIs>
            <LinearRing>
              <tessellate>1</tessellate>
              <coordinates>
                -49.2702928,-16.7434568,0
                -49.2706146,-16.742902,0
                -49.2686191,-16.7417308,0
                -49.2677393,-16.7416075,0
                -49.2674389,-16.7430047,0
                -49.2665806,-16.7433335,0
                -49.2648854,-16.7430458,0
                -49.2659798,-16.7378677,0
                -49.2664462,-16.7363289,0
                -49.2693645,-16.7380756,0
                -49.27239,-16.7397195,0
                -49.275512,-16.741425,0
                -49.2744556,-16.7433129,0
                -49.2734685,-16.7450595,0
                -49.2702928,-16.7434568,0
              </coordinates>
            </LinearRing>
          </outerBoundaryIs>
        </Polygon>
      </Placemark>
      <Placemark>
        <name>Vila Amaricano do Brasil</name>
        <styleUrl>#poly-0288D1-1-76-nodesc</styleUrl>
        <Polygon>
          <outerBoundaryIs>
            <LinearRing>
              <tessellate>1</tessellate>
              <coordinates>
                -49.2897557,-16.6846055,0
                -49.2894436,-16.6872516,0
                -49.28916,-16.6872146,0
                -49.2890273,-16.6882924,0
                -49.2889361,-16.6883643,0
                -49.2887215,-16.6883849,0
                -49.2887268,-16.688724,0
                -49.2886786,-16.6891505,0
                -49.2886786,-16.6894023,0
                -49.2885916,-16.6897023,0
                -49.2884574,-16.6896608,0
                -49.2882683,-16.6896489,0
                -49.2880417,-16.6896708,0
                -49.2880524,-16.6884441,0
                -49.2877627,-16.6884697,0
                -49.2878593,-16.685492,0
                -49.2878351,-16.6853712,0
                -49.2877902,-16.6852704,0
                -49.2887002,-16.6849203,0
                -49.289576,-16.6845747,0
                -49.2897557,-16.6846055,0
              </coordinates>
            </LinearRing>
          </outerBoundaryIs>
        </Polygon>
      </Placemark>
      <Placemark>
        <name>Vila Divino Pai Eterno</name>
        <styleUrl>#poly-0288D1-1-76-nodesc</styleUrl>
        <Polygon>
          <outerBoundaryIs>
            <LinearRing>
              <tessellate>1</tessellate>
              <coordinates>
                -49.2720803,-16.7289749,0
                -49.2701491,-16.7314305,0
                -49.2675098,-16.7319956,0
                -49.2665764,-16.7315847,0
                -49.2664906,-16.7316258,0
                -49.2664155,-16.7315025,0
                -49.2664155,-16.7300846,0
                -49.2667373,-16.7299818,0
                -49.2719516,-16.7267761,0
                -49.2719945,-16.7272898,0
                -49.2720803,-16.7289749,0
              </coordinates>
            </LinearRing>
          </outerBoundaryIs>
        </Polygon>
      </Placemark>
      <Placemark>
        <name>Vila Maria Isabel</name>
        <styleUrl>#poly-0288D1-1-76-nodesc</styleUrl>
        <Polygon>
          <outerBoundaryIs>
            <LinearRing>
              <tessellate>1</tessellate>
              <coordinates>
                -49.2442248,-16.7124076,0
                -49.244359,-16.7129992,0
                -49.2404055,-16.7159491,0
                -49.2404322,-16.7124414,0
                -49.2442248,-16.7124076,0
              </coordinates>
            </LinearRing>
          </outerBoundaryIs>
        </Polygon>
      </Placemark>
      <Placemark>
        <name>Vila Maria José</name>
        <styleUrl>#poly-0288D1-1-76-nodesc</styleUrl>
        <MultiGeometry>
          <Polygon>
            <outerBoundaryIs>
              <LinearRing>
                <tessellate>1</tessellate>
                <coordinates>
                  -49.2404504,-16.7102892,0
                  -49.2425639,-16.7102584,0
                  -49.2432774,-16.7102686,0
                  -49.243787,-16.7103123,0
                  -49.2442248,-16.7124076,0
                  -49.2404396,-16.712442,0
                  -49.2404504,-16.7102892,0
                </coordinates>
              </LinearRing>
            </outerBoundaryIs>
          </Polygon>
          <Polygon>
            <outerBoundaryIs>
              <LinearRing>
                <tessellate>1</tessellate>
                <coordinates>
                  -49.2404504,-16.7102892,0
                  -49.2348499,-16.7147848,0
                  -49.2319853,-16.7113836,0
                  -49.23107,-16.7097653,0
                  -49.235434,-16.7084295,0
                  -49.2357746,-16.7082907,0
                  -49.236262,-16.7080183,0
                  -49.2405255,-16.704843,0
                  -49.2403967,-16.7066618,0
                  -49.2404504,-16.7102892,0
                </coordinates>
              </LinearRing>
            </outerBoundaryIs>
          </Polygon>
        </MultiGeometry>
      </Placemark>
      <Placemark>
        <name>Vila Redenção</name>
        <styleUrl>#poly-0288D1-1-76-nodesc</styleUrl>
        <Polygon>
          <outerBoundaryIs>
            <LinearRing>
              <tessellate>1</tessellate>
              <coordinates>
                -49.2503142,-16.7210831,0
                -49.2490911,-16.7244123,0
                -49.2465211,-16.7273233,0
                -49.2430879,-16.7285152,0
                -49.2421867,-16.728433,0
                -49.2416371,-16.7277675,0
                -49.2386545,-16.7201229,0
                -49.2374944,-16.7181166,0
                -49.2404055,-16.7159491,0
                -49.244359,-16.7129992,0
                -49.2457141,-16.713485,0
                -49.2464007,-16.7167114,0
                -49.2467869,-16.7177595,0
                -49.2476452,-16.7188487,0
                -49.2503142,-16.7210831,0
              </coordinates>
            </LinearRing>
          </outerBoundaryIs>
        </Polygon>
      </Placemark>
      <Placemark>
        <name>Vila Santa Efigênia</name>
        <styleUrl>#poly-0288D1-1-76-nodesc</styleUrl>
        <Polygon>
          <outerBoundaryIs>
            <LinearRing>
              <tessellate>1</tessellate>
              <coordinates>
                -49.2892583,-16.6929765,0
                -49.2890701,-16.6915297,0
                -49.2883661,-16.6911942,0
                -49.2883621,-16.6902564,0
                -49.2885916,-16.6897023,0
                -49.2886786,-16.6894023,0
                -49.2886786,-16.6891505,0
                -49.2887268,-16.688724,0
                -49.2887215,-16.6883849,0
                -49.2889361,-16.6883643,0
                -49.2890273,-16.6882924,0
                -49.28916,-16.6872146,0
                -49.2899278,-16.6873141,0
                -49.2899764,-16.6870248,0
                -49.2916129,-16.6872441,0
                -49.2917846,-16.6884568,0
                -49.2917417,-16.688909,0
                -49.2917631,-16.6897106,0
                -49.2924927,-16.6909027,0
                -49.2926,-16.6911699,0
                -49.2927072,-16.6916426,0
                -49.2892583,-16.6929765,0
              </coordinates>
            </LinearRing>
          </outerBoundaryIs>
        </Polygon>
      </Placemark>
      <Placemark>
        <name>Vila São João</name>
        <styleUrl>#poly-0288D1-1-76-nodesc</styleUrl>
        <Polygon>
          <outerBoundaryIs>
            <LinearRing>
              <tessellate>1</tessellate>
              <coordinates>
                -49.243787,-16.7103123,0
                -49.2432774,-16.7102686,0
                -49.2425639,-16.7102584,0
                -49.2404504,-16.7102892,0
                -49.2403967,-16.7066618,0
                -49.2405255,-16.704843,0
                -49.2441376,-16.7021842,0
                -49.243624,-16.7043179,0
                -49.2432807,-16.7055305,0
                -49.243345,-16.7067636,0
                -49.2434309,-16.7084694,0
                -49.2435489,-16.7091887,0
                -49.2436454,-16.709682,0
                -49.243787,-16.7103123,0
              </coordinates>
            </LinearRing>
          </outerBoundaryIs>
        </Polygon>
      </Placemark>
      <Placemark>
        <name>Vila São Tomaz</name>
        <styleUrl>#poly-0288D1-1-76-nodesc</styleUrl>
        <Polygon>
          <outerBoundaryIs>
            <LinearRing>
              <tessellate>1</tessellate>
              <coordinates>
                -49.2806488,-16.749516,0
                -49.2762743,-16.7479639,0
                -49.275776,-16.7476937,0
                -49.2758155,-16.7475949,0
                -49.2758477,-16.7474459,0
                -49.2758316,-16.7473175,0
                -49.2757672,-16.7471788,0
                -49.2756653,-16.7470606,0
                -49.2755044,-16.7469784,0
                -49.2753863,-16.746963,0
                -49.2752147,-16.7469682,0
                -49.2749411,-16.7462644,0
                -49.2750162,-16.7461,0
                -49.2734685,-16.7450595,0
                -49.275512,-16.741425,0
                -49.2821747,-16.7450516,0
                -49.2806488,-16.749516,0
              </coordinates>
            </LinearRing>
          </outerBoundaryIs>
        </Polygon>
      </Placemark>
      <Placemark>
        <name>Vila Teófilo Neto</name>
        <styleUrl>#poly-0288D1-1-76-nodesc</styleUrl>
        <Polygon>
          <outerBoundaryIs>
            <LinearRing>
              <tessellate>1</tessellate>
              <coordinates>
                -49.2924885,-16.6942251,0
                -49.2925797,-16.6951565,0
                -49.2896924,-16.6956404,0
                -49.2892583,-16.6929765,0
                -49.2927072,-16.6916426,0
                -49.2928017,-16.6925177,0
                -49.2924885,-16.6942251,0
              </coordinates>
            </LinearRing>
          </outerBoundaryIs>
        </Polygon>
      </Placemark>
    </Folder>
  </Document>
</kml>
